{"fetched_at":"2026-07-18T17:30:01.066Z","source":"https://celestrak.org/NORAD/elements/gp.php?NAME=JILIN&FORMAT=JSON","constellation":"jilin-1-early","records":[{"OBJECT_NAME":"JILIN-1","OBJECT_ID":"2015-057D","EPOCH":"2026-07-18T06:53:16.224576","CLASSIFICATION_TYPE":"U","MEAN_MOTION":14.78203976,"ECCENTRICITY":0.00174946,"INCLINATION":97.6521,"RA_OF_ASC_NODE":197.1121,"ARG_OF_PERICENTER":157.094,"MEAN_ANOMALY":203.1056,"EPHEMERIS_TYPE":0,"NORAD_CAT_ID":40961,"ELEMENT_SET_NO":999,"REV_AT_EPOCH":58020,"BSTAR":0.000055807055,"MEAN_MOTION_DOT":0.00000357,"MEAN_MOTION_DDOT":0},{"OBJECT_NAME":"JILIN-1 03","OBJECT_ID":"2017-002B","EPOCH":"2026-07-18T07:19:56.797536","CLASSIFICATION_TYPE":"U","MEAN_MOTION":15.42279597,"ECCENTRICITY":0.00077237,"INCLINATION":97.1953,"RA_OF_ASC_NODE":205.9673,"ARG_OF_PERICENTER":71.061,"MEAN_ANOMALY":289.1475,"EPHEMERIS_TYPE":0,"NORAD_CAT_ID":41914,"ELEMENT_SET_NO":999,"REV_AT_EPOCH":52665,"BSTAR":0.00017334021,"MEAN_MOTION_DOT":0.0000738,"MEAN_MOTION_DDOT":0},{"OBJECT_NAME":"JILIN-1 04","OBJECT_ID":"2017-074A","EPOCH":"2026-07-18T06:47:21.378048","CLASSIFICATION_TYPE":"U","MEAN_MOTION":15.43182433,"ECCENTRICITY":0.00052219,"INCLINATION":97.4879,"RA_OF_ASC_NODE":309.7449,"ARG_OF_PERICENTER":92.5264,"MEAN_ANOMALY":267.6582,"EPHEMERIS_TYPE":0,"NORAD_CAT_ID":43022,"ELEMENT_SET_NO":999,"REV_AT_EPOCH":47906,"BSTAR":0.00017401899,"MEAN_MOTION_DOT":0.00007628,"MEAN_MOTION_DDOT":0},{"OBJECT_NAME":"JILIN-1 05","OBJECT_ID":"2017-074B","EPOCH":"2026-07-18T07:11:12.473088","CLASSIFICATION_TYPE":"U","MEAN_MOTION":15.34313405,"ECCENTRICITY":0.00065585,"INCLINATION":97.4882,"RA_OF_ASC_NODE":305.8871,"ARG_OF_PERICENTER":116.1485,"MEAN_ANOMALY":244.0433,"EPHEMERIS_TYPE":0,"NORAD_CAT_ID":43023,"ELEMENT_SET_NO":999,"REV_AT_EPOCH":47877,"BSTAR":0.00013087573,"MEAN_MOTION_DOT":0.00004268,"MEAN_MOTION_DDOT":0},{"OBJECT_NAME":"JILIN-1 06","OBJECT_ID":"2017-074C","EPOCH":"2026-07-18T06:37:21.899424","CLASSIFICATION_TYPE":"U","MEAN_MOTION":15.34017226,"ECCENTRICITY":0.00082542,"INCLINATION":97.4807,"RA_OF_ASC_NODE":302.8307,"ARG_OF_PERICENTER":125.0017,"MEAN_ANOMALY":235.2001,"EPHEMERIS_TYPE":0,"NORAD_CAT_ID":43024,"ELEMENT_SET_NO":999,"REV_AT_EPOCH":47860,"BSTAR":0.0001059628,"MEAN_MOTION_DOT":0.00003408,"MEAN_MOTION_DDOT":0},{"OBJECT_NAME":"JILIN-1 07","OBJECT_ID":"2018-008E","EPOCH":"2026-07-18T07:39:19.222272","CLASSIFICATION_TYPE":"U","MEAN_MOTION":15.35194051,"ECCENTRICITY":0.00064568,"INCLINATION":97.1766,"RA_OF_ASC_NODE":218.4264,"ARG_OF_PERICENTER":314.3381,"MEAN_ANOMALY":45.7333,"EPHEMERIS_TYPE":0,"NORAD_CAT_ID":43159,"ELEMENT_SET_NO":999,"REV_AT_EPOCH":46977,"BSTAR":0.00013449392,"MEAN_MOTION_DOT":0.00004519,"MEAN_MOTION_DDOT":0},{"OBJECT_NAME":"JILIN-1 08","OBJECT_ID":"2018-008F","EPOCH":"2026-07-18T06:37:38.346528","CLASSIFICATION_TYPE":"U","MEAN_MOTION":15.34030141,"ECCENTRICITY":0.00049443,"INCLINATION":97.1803,"RA_OF_ASC_NODE":217.6656,"ARG_OF_PERICENTER":340.043,"MEAN_ANOMALY":20.0619,"EPHEMERIS_TYPE":0,"NORAD_CAT_ID":43160,"ELEMENT_SET_NO":999,"REV_AT_EPOCH":46971,"BSTAR":0.000097699725,"MEAN_MOTION_DOT":0.00003141,"MEAN_MOTION_DDOT":0},{"OBJECT_NAME":"JILIN-1 09","OBJECT_ID":"2019-005B","EPOCH":"2026-07-18T05:44:36.062592","CLASSIFICATION_TYPE":"U","MEAN_MOTION":15.20755302,"ECCENTRICITY":0.00020435,"INCLINATION":97.4745,"RA_OF_ASC_NODE":293.9426,"ARG_OF_PERICENTER":29.2573,"MEAN_ANOMALY":330.8777,"EPHEMERIS_TYPE":0,"NORAD_CAT_ID":43943,"ELEMENT_SET_NO":999,"REV_AT_EPOCH":41386,"BSTAR":0.000101916,"MEAN_MOTION_DOT":0.00002174,"MEAN_MOTION_DDOT":0},{"OBJECT_NAME":"JILIN-1 10","OBJECT_ID":"2019-005E","EPOCH":"2026-07-18T06:37:31.878624","CLASSIFICATION_TYPE":"U","MEAN_MOTION":15.26025952,"ECCENTRICITY":0.00088718,"INCLINATION":97.4797,"RA_OF_ASC_NODE":298.0886,"ARG_OF_PERICENTER":159.7864,"MEAN_ANOMALY":200.3727,"EPHEMERIS_TYPE":0,"NORAD_CAT_ID":43946,"ELEMENT_SET_NO":999,"REV_AT_EPOCH":41405,"BSTAR":0.00011989339,"MEAN_MOTION_DOT":0.00003013,"MEAN_MOTION_DDOT":0}]}
