JILIN-1                 
1 40961U 15057D   26199.28699334  .00000357  00000+0  55807-4 0  9992
2 40961  97.6521 197.1121 0017494 157.0940 203.1056 14.78203976580204
JILIN-1 03              
1 41914U 17002B   26199.30551849  .00007380  00000+0  17334-3 0  9999
2 41914  97.1953 205.9673 0007723  71.0610 289.1475 15.42279597526652
JILIN-1 04              
1 43022U 17074A   26199.28288632  .00007628  00000+0  17402-3 0  9995
2 43022  97.4879 309.7449 0005221  92.5264 267.6582 15.43182433479067
JILIN-1 05              
1 43023U 17074B   26199.29944992  .00004268  00000+0  13088-3 0  9998
2 43023  97.4882 305.8871 0006558 116.1485 244.0433 15.34313405478776
JILIN-1 06              
1 43024U 17074C   26199.27594791  .00003408  00000+0  10596-3 0  9991
2 43024  97.4807 302.8307 0008254 125.0017 235.2001 15.34017226478607
JILIN-1 07              
1 43159U 18008E   26199.31897248  .00004519  00000+0  13449-3 0  9990
2 43159  97.1766 218.4264 0006456 314.3381  45.7333 15.35194051469773
JILIN-1 08              
1 43160U 18008F   26199.27613827  .00003141  00000+0  97700-4 0  9999
2 43160  97.1803 217.6656 0004944 340.0430  20.0619 15.34030141469719
JILIN-1 09              
1 43943U 19005B   26199.23930628  .00002174  00000+0  10192-3 0  9997
2 43943  97.4745 293.9426 0002043  29.2573 330.8777 15.20755302413860
JILIN-1 10              
1 43946U 19005E   26199.27606341  .00003013  00000+0  11989-3 0  9994
2 43946  97.4797 298.0886 0008871 159.7864 200.3727 15.26025952414058
